NORAD_CAT_ID,OBJECT_NAME,OBJECT_TYPE,EPOCH,MEAN_MOTION,ECCENTRICITY,INCLINATION,RA_OF_ASC_NODE,ARG_OF_PERICENTER,MEAN_ANOMALY,BSTAR,MEAN_MOTION_DOT,MEAN_MOTION_DDOT,TLE_LINE0,TLE_LINE1,TLE_LINE2,SEMIMAJOR_AXIS,PERIOD,APOGEE,PERIGEE,DECAYED
56464.0,STARLINK-6043,PAYLOAD,2024-07-26 05:36:12,14.98327278,0.0003051,69.9993,195.6428,266.1957,93.8853,0.00013251,1.488e-05,0.0,0 STARLINK-6043,1 56464U 23064S   24208.23348306  .00001488  00000-0  13251-3 0  9991,2 56464  69.9993 195.6428 0003051 266.1957  93.8853 14.98327278 67013,6950.201,96.107,574.187,569.946,0.0
56464.0,STARLINK-6043,PAYLOAD,2024-07-26 08:48:28,14.98329825,0.0003028,69.9994,195.3062,266.5573,93.5239,0.00015834,1.797e-05,0.0,0 STARLINK-6043,1 56464U 23064S   24208.36700108  .00001797  00000-0  15834-3 0  9999,2 56464  69.9994 195.3062 0003028 266.5573  93.5239 14.98329825 66673,6950.193,96.107,574.163,569.954,0.0
56464.0,STARLINK-6043,PAYLOAD,2024-07-26 23:13:41,14.98331206,0.0002992,69.9994,193.7912,266.7518,93.3299,8.5132e-05,9.23e-06,0.0,0 STARLINK-6043,1 56464U 23064S   24208.96784235  .00000923  00000-0  85132-4 0  9997,2 56464  69.9994 193.7912 0002992 266.7518  93.3299 14.98331206 66769,6950.189,96.107,574.134,569.975,0.0
56464.0,STARLINK-6043,PAYLOAD,2024-07-27 05:38:13,14.98332442,0.0002996,69.9995,193.1181,267.072,93.0096,9.2105e-05,1.006e-05,0.0,0 STARLINK-6043,1 56464U 23064S   24209.23488120  .00001006  00000-0  92105-4 0  9993,2 56464  69.9995 193.1181 0002996 267.0720  93.0096 14.98332442 67165,6950.185,96.107,574.133,569.968,0.0
56464.0,STARLINK-6043,PAYLOAD,2024-07-27 16:51:10,14.983301,0.0002958,69.9996,191.9397,267.29,92.792,4.1572e-05,4.03e-06,0.0,0 STARLINK-6043,1 56464U 23064S   24209.70220340  .00000403  00000-0  41572-4 0  9995,2 56464  69.9996 191.9397 0002958 267.2900  92.7920 14.98330100 66879,6950.193,96.107,574.113,570.002,0.0
56464.0,STARLINK-6043,PAYLOAD,2024-07-28 05:40:14,14.98332024,0.0002961,69.9996,190.5935,267.6332,92.4488,-3.274e-06,-1.32e-06,0.0,0 STARLINK-6043,1 56464U 23064S   24210.23628282 -.00000132  00000-0 -32740-5 0  9991,2 56464  69.9996 190.5935 0002961 267.6332  92.4488 14.98332024 67312,6950.187,96.107,574.11,569.994,0.0
56464.0,STARLINK-6043,PAYLOAD,2024-07-28 21:41:35,14.98330304,0.0002909,69.9998,188.9103,268.0716,92.011,-9.3391e-06,-2.04e-06,0.0,0 STARLINK-6043,1 56464U 23064S   24210.90388389 -.00000204  00000-0 -93391-5 0  9995,2 56464  69.9998 188.9103 0002909 268.0716  92.0110 14.98330304 67053,6950.192,96.107,574.079,570.035,0.0
56464.0,STARLINK-6043,PAYLOAD,2024-07-29 05:42:15,14.98331625,0.0002915,70.0,188.0688,268.2163,91.8662,-4.8767e-06,-1.51e-06,0.0,0 STARLINK-6043,1 56464U 23064S   24211.23768283 -.00000151  00000-0 -48767-5 0  9995,2 56464  70.0000 188.0688 0002915 268.2163  91.8662 14.98331625 67465,6950.188,96.107,574.079,570.027,0.0
56464.0,STARLINK-6043,PAYLOAD,2024-07-29 08:54:31,14.98331445,0.0002926,70.0,187.7322,268.3505,91.7318,-7.1249e-06,-1.78e-06,0.0,0 STARLINK-6043,1 56464U 23064S   24211.37120291 -.00000178  00000-0 -71249-5 0  9991,2 56464  70.0000 187.7322 0002926 268.3505  91.7318 14.98331445 67129,6950.188,96.107,574.087,570.02,0.0
56464.0,STARLINK-6043,PAYLOAD,2024-07-29 21:43:36,14.98330836,0.0002926,70.0,186.3857,269.2871,90.7952,7.0833e-05,7.52e-06,0.0,0 STARLINK-6043,1 56464U 23064S   24211.90528125  .00000752  00000-0  70833-4 0  9991,2 56464  70.0000 186.3857 0002926 269.2871  90.7952 14.98330836 67208,6950.19,96.107,574.089,570.022,0.0
56464.0,STARLINK-6043,PAYLOAD,2024-07-30 08:56:32,14.98335737,0.0002908,70.0001,185.2076,268.8867,91.1958,0.00011116,1.234e-05,0.0,0 STARLINK-6043,1 56464U 23064S   24212.37259664  .00001234  00000-0  11116-3 0  9996,2 56464  70.0001 185.2076 0002908 268.8867  91.1958 14.98335737 67633,6950.175,96.107,574.061,570.019,0.0
56464.0,STARLINK-6043,PAYLOAD,2024-07-30 21:45:37,14.98327883,0.0002834,70.0003,183.8613,268.0304,92.053,3.0925e-05,2.76e-06,0.0,0 STARLINK-6043,1 56464U 23064S   24212.90668348  .00000276  00000-0  30925-4 0  9993,2 56464  70.0003 183.8613 0002834 268.0304  92.0530 14.98327883 67710,6950.199,96.107,574.034,570.095,0.0
56464.0,STARLINK-6043,PAYLOAD,2024-07-30 23:21:45,14.98329374,0.0002818,70.0003,183.6931,267.9235,92.1602,4.7637e-05,4.75e-06,0.0,0 STARLINK-6043,1 56464U 23064S   24212.97344214  .00000475  00000-0  47637-4 0  9992,2 56464  70.0003 183.6931 0002818 267.9235  92.1602 14.98329374 67363,6950.195,96.107,574.018,570.101,0.0
56464.0,STARLINK-6043,PAYLOAD,2024-07-31 04:10:08,14.98345964,0.0002575,70.0005,183.188,261.2948,98.7919,0.00023362,2.697e-05,0.0,0 STARLINK-6043,1 56464U 23064S   24213.17370567  .00002697  00000-0  23362-3 0  9991,2 56464  70.0005 183.1880 0002575 261.2948  98.7919 14.98345964 67750,6950.144,96.106,573.798,570.219,0.0
56464.0,STARLINK-6043,PAYLOAD,2024-07-31 07:22:23,14.98358789,0.0002735,70.0002,182.8508,268.0625,92.022,0.00034014,3.971e-05,0.0,0 STARLINK-6043,1 56464U 23064S   24213.30721288  .00003971  00000-0  34014-3 0  9998,2 56464  70.0002 182.8508 0002735 268.0625  92.0220 14.98358789 67778,6950.104,96.105,573.87,570.068,0.0
56464.0,STARLINK-6043,PAYLOAD,2024-07-31 21:47:37,14.98334969,0.0002025,70.0005,181.3366,274.8616,85.2312,-1.3063e-05,-2.49e-06,0.0,0 STARLINK-6043,1 56464U 23064S   24213.90807597 -.00000249  00000-0 -13063-4 0  9991,2 56464  70.0005 181.3366 0002025 274.8616  85.2312 14.98334969 67864,6950.178,96.107,573.45,570.635,0.0
56464.0,STARLINK-6043,PAYLOAD,2024-07-31 23:23:47,14.98317106,0.000291,70.0005,181.1683,268.6093,91.4733,-0.00021065,-2.605e-05,0.0,0 STARLINK-6043,1 56464U 23064S   24213.97484999 -.00002605  00000-0 -21065-3 0  9993,2 56464  70.0005 181.1683 0002910 268.6093  91.4733 14.98317106 67519,6950.233,96.108,574.12,570.075,0.0
56464.0,STARLINK-6043,PAYLOAD,2024-08-01 04:12:11,14.98318671,0.0002821,70.0005,180.6638,268.165,91.9186,-0.00014975,-1.879e-05,0.0,0 STARLINK-6043,1 56464U 23064S   24214.17512859 -.00001879  00000-0 -14975-3 0  9997,2 56464  70.0005 180.6638 0002821 268.1650  91.9186 14.98318671 67906,6950.228,96.108,574.054,570.132,0.0
56464.0,STARLINK-6043,PAYLOAD,2024-08-01 07:24:27,14.98319171,0.0002858,70.0003,180.3268,268.3555,91.7277,-0.00014573,-1.831e-05,0.0,0 STARLINK-6043,1 56464U 23064S   24214.30864887 -.00001831  00000-0 -14573-3 0  9995,2 56464  70.0003 180.3268 0002858 268.3555  91.7277 14.98319171 67563,6950.226,96.108,574.078,570.105,0.0
56464.0,STARLINK-6043,PAYLOAD,2024-08-01 21:49:39,14.98329514,0.0002869,69.9996,178.8122,269.3122,90.7708,-2.5916e-05,-4.02e-06,0.0,0 STARLINK-6043,1 56464U 23064S   24214.90948116 -.00000402  00000-0 -25916-4 0  9996,2 56464  69.9996 178.8122 0002869 269.3122  90.7708 14.98329514 68016,6950.194,96.107,574.053,570.065,0.0
56464.0,STARLINK-6043,PAYLOAD,2024-08-02 04:14:10,14.98341545,0.0002902,69.9999,178.1383,265.4855,94.5973,-7.2701e-05,-9.61e-06,0.0,0 STARLINK-6043,1 56464U 23064S   24215.17651492 -.00000961  00000-0 -72701-4 0  9998,2 56464  69.9999 178.1383 0002902 265.4855  94.5973 14.98341545 68057,6950.157,96.106,574.039,570.005,0.0
56464.0,STARLINK-6043,PAYLOAD,2024-08-02 07:26:26,14.98343548,0.0003248,70.0001,177.8016,276.9783,83.1006,-1.1465e-05,-2.3e-06,0.0,0 STARLINK-6043,1 56464U 23064S   24215.31003230 -.00000230  00000-0 -11465-4 0  9994,2 56464  70.0001 177.8016 0003248 276.9783  83.1006 14.98343548 67712,6950.151,96.106,574.273,569.759,0.0
56464.0,STARLINK-6043,PAYLOAD,2024-08-02 21:51:40,14.98319724,0.000307,70.0001,176.2867,268.2214,91.8594,0.00027128,3.144e-05,0.0,0 STARLINK-6043,1 56464U 23064S   24215.91088094  .00003144  00000-0  27128-3 0  9998,2 56464  70.0001 176.2867 0003070 268.2214  91.8594 14.98319724 67802,6950.225,96.108,574.223,569.956,0.0
56464.0,STARLINK-6043,PAYLOAD,2024-08-03 04:16:12,14.98329952,0.0003068,70.0009,175.6137,268.8148,91.266,0.00036436,4.257e-05,0.0,0 STARLINK-6043,1 56464U 23064S   24216.17792135  .00004257  00000-0  36436-3 0  9993,2 56464  70.0009 175.6137 0003068 268.8148  91.2660 14.98329952 68209,6950.193,96.107,574.19,569.926,0.0
56464.0,STARLINK-6043,PAYLOAD,2024-08-03 07:28:28,14.98333351,0.0003063,70.001,175.2772,268.5653,91.5155,0.00041601,4.875e-05,0.0,0 STARLINK-6043,1 56464U 23064S   24216.31144061  .00004875  00000-0  41601-3 0  9994,2 56464  70.0010 175.2772 0003063 268.5653  91.5155 14.98333351 67866,6950.183,96.107,574.176,569.919,0.0
56464.0,STARLINK-6043,PAYLOAD,2024-08-03 21:53:40,14.98335495,0.0002879,70.0021,173.7623,271.1668,88.9161,0.00014943,1.691e-05,0.0,0 STARLINK-6043,1 56464U 23064S   24216.91227913  .00001691  00000-0  14943-3 0  9990,2 56464  70.0021 173.7623 0002879 271.1668  88.9161 14.98335495 67954,6950.176,96.107,574.042,570.04,0.0
56464.0,STARLINK-6043,PAYLOAD,2024-08-04 04:18:12,14.98340419,0.0002924,70.0015,173.0892,270.2839,89.7985,0.00020743,2.384e-05,0.0,0 STARLINK-6043,1 56464U 23064S   24217.17931576  .00002384  00000-0  20743-3 0  9991,2 56464  70.0015 173.0892 0002924 270.2839  89.7985 14.98340419 68359,6950.161,96.106,574.058,569.993,0.0
56464.0,STARLINK-6043,PAYLOAD,2024-08-04 13:55:01,14.9834117,0.0002782,70.0021,172.0805,268.6143,91.4697,-0.0001833,-2.28e-05,0.0,0 STARLINK-6043,1 56464U 23064S   24217.57987299 -.00002280  00000-0 -18330-3 0  9994,2 56464  70.0021 172.0805 0002782 268.6143  91.4697 14.98341170 68052,6950.158,96.106,573.957,570.09,0.0
56464.0,STARLINK-6043,PAYLOAD,2024-08-04 21:55:41,14.98337243,0.0002801,70.0019,171.2378,272.1071,87.9768,0.00016334,1.857e-05,0.0,0 STARLINK-6043,1 56464U 23064S   24217.91367530  .00001857  00000-0  16334-3 0  9991,2 56464  70.0019 171.2378 0002801 272.1071  87.9768 14.98337243 68108,6950.17,96.107,573.982,570.089,0.0
56464.0,STARLINK-6043,PAYLOAD,2024-08-05 04:20:13,14.98338985,0.0002681,70.002,170.5646,271.3381,88.7471,0.00016676,1.898e-05,0.0,0 STARLINK-6043,1 56464U 23064S   24218.18071354  .00001898  00000-0  16676-3 0  9991,2 56464  70.0020 170.5646 0002681 271.3381  88.7471 14.98338985 68509,6950.165,96.106,573.893,570.167,0.0
